[{"CCSDS_OMM_VERS":"2.0","COMMENT":"GENERATED VIA SPACE-TRACK.ORG API","CREATION_DATE":"2022-12-08T18:21:51","ORIGINATOR":"18 SPCS","OBJECT_NAME":"BSAT-3A","OBJECT_ID":"2007-036B","CENTER_NAME":"EARTH","REF_FRAME":"TEME","TIME_SYSTEM":"UTC","MEAN_ELEMENT_THEORY":"SGP4","EPOCH":"2022-12-08T13:56:47.470272","MEAN_MOTION":"1.00269371","ECCENTRICITY":"0.00043480","INCLINATION":"0.0546","RA_OF_ASC_NODE":"246.5955","ARG_OF_PERICENTER":"6.3257","MEAN_ANOMALY":"143.4451","EPHEMERIS_TYPE":"0","CLASSIFICATION_TYPE":"U","NORAD_CAT_ID":"32019","ELEMENT_SET_NO":"999","REV_AT_EPOCH":"3761","BSTAR":"0.00000000000000","MEAN_MOTION_DOT":"-0.00000335","MEAN_MOTION_DDOT":"0.0000000000000","SEMIMAJOR_AXIS":"42165.409","PERIOD":"1436.131","APOAPSIS":"35805.607","PERIAPSIS":"35768.940","OBJECT_TYPE":"PAYLOAD","RCS_SIZE":"LARGE","COUNTRY_CODE":"JPN","LAUNCH_DATE":"2007-08-14","SITE":"FRGUI","DECAY_DATE":null,"FILE":"3684614","GP_ID":"219764302","TLE_LINE0":"0 BSAT-3A","TLE_LINE1":"1 32019U 07036B   22342.58110498 -.00000335  00000-0  00000-0 0  9992","TLE_LINE2":"2 32019   0.0546 246.5955 0004348   6.3257 143.4451  1.00269371 37618"},{"CCSDS_OMM_VERS":"2.0","COMMENT":"GENERATED VIA SPACE-TRACK.ORG API","CREATION_DATE":"2022-12-08T18:21:51","ORIGINATOR":"18 SPCS","OBJECT_NAME":"SPACEWAY 3","OBJECT_ID":"2007-036A","CENTER_NAME":"EARTH","REF_FRAME":"TEME","TIME_SYSTEM":"UTC","MEAN_ELEMENT_THEORY":"SGP4","EPOCH":"2022-12-08T12:52:37.782624","MEAN_MOTION":"1.00271716","ECCENTRICITY":"0.00002110","INCLINATION":"0.6738","RA_OF_ASC_NODE":"91.1456","ARG_OF_PERICENTER":"333.3795","MEAN_ANOMALY":"110.9576","EPHEMERIS_TYPE":"0","CLASSIFICATION_TYPE":"U","NORAD_CAT_ID":"32018","ELEMENT_SET_NO":"999","REV_AT_EPOCH":"3365","BSTAR":"0.00000000000000","MEAN_MOTION_DOT":"-0.00000136","MEAN_MOTION_DDOT":"0.0000000000000","SEMIMAJOR_AXIS":"42164.751","PERIOD":"1436.098","APOAPSIS":"35787.506","PERIAPSIS":"35785.727","OBJECT_TYPE":"PAYLOAD","RCS_SIZE":"LARGE","COUNTRY_CODE":"US","LAUNCH_DATE":"2007-08-14","SITE":"FRGUI","DECAY_DATE":null,"FILE":"3684614","GP_ID":"219764054","TLE_LINE0":"0 SPACEWAY 3","TLE_LINE1":"1 32018U 07036A   22342.53654841 -.00000136  00000-0  00000-0 0  9990","TLE_LINE2":"2 32018   0.6738  91.1456 0000211 333.3795 110.9576  1.00271716 33654"},{"CCSDS_OMM_VERS":"2.0","COMMENT":"GENERATED VIA SPACE-TRACK.ORG API","CREATION_DATE":"2022-12-08T18:21:51","ORIGINATOR":"18 SPCS","OBJECT_NAME":"DIRECTV 10","OBJECT_ID":"2007-032A","CENTER_NAME":"EARTH","REF_FRAME":"TEME","TIME_SYSTEM":"UTC","MEAN_ELEMENT_THEORY":"SGP4","EPOCH":"2022-12-08T12:50:22.223616","MEAN_MOTION":"1.00269727","ECCENTRICITY":"0.00005540","INCLINATION":"0.0082","RA_OF_ASC_NODE":"91.8338","ARG_OF_PERICENTER":"99.2507","MEAN_ANOMALY":"335.9972","EPHEMERIS_TYPE":"0","CLASSIFICATION_TYPE":"U","NORAD_CAT_ID":"31862","ELEMENT_SET_NO":"999","REV_AT_EPOCH":"3269","BSTAR":"0.00000000000000","MEAN_MOTION_DOT":"-0.00000087","MEAN_MOTION_DDOT":"0.0000000000000","SEMIMAJOR_AXIS":"42165.309","PERIOD":"1436.126","APOAPSIS":"35789.510","PERIAPSIS":"35784.838","OBJECT_TYPE":"PAYLOAD","RCS_SIZE":"LARGE","COUNTRY_CODE":"US","LAUNCH_DATE":"2007-07-07","SITE":"TTMTR","DECAY_DATE":null,"FILE":"3684614","GP_ID":"219764540","TLE_LINE0":"0 DIRECTV 10","TLE_LINE1":"1 31862U 07032A   22342.53497944 -.00000087  00000-0  00000-0 0  9996","TLE_LINE2":"2 31862   0.0082  91.8338 0000554  99.2507 335.9972  1.00269727 32692"},{"CCSDS_OMM_VERS":"2.0","COMMENT":"GENERATED VIA SPACE-TRACK.ORG API","CREATION_DATE":"2022-12-08T18:21:51","ORIGINATOR":"18 SPCS","OBJECT_NAME":"CHINASAT 6B","OBJECT_ID":"2007-031A","CENTER_NAME":"EARTH","REF_FRAME":"TEME","TIME_SYSTEM":"UTC","MEAN_ELEMENT_THEORY":"SGP4","EPOCH":"2022-12-08T14:39:45.052704","MEAN_MOTION":"1.00268795","ECCENTRICITY":"0.00052120","INCLINATION":"0.0177","RA_OF_ASC_NODE":"357.9905","ARG_OF_PERICENTER":"260.0681","MEAN_ANOMALY":"154.7355","EPHEMERIS_TYPE":"0","CLASSIFICATION_TYPE":"U","NORAD_CAT_ID":"31800","ELEMENT_SET_NO":"999","REV_AT_EPOCH":"5652","BSTAR":"0.00000000000000","MEAN_MOTION_DOT":"-0.00000346","MEAN_MOTION_DDOT":"0.0000000000000","SEMIMAJOR_AXIS":"42165.570","PERIOD":"1436.140","APOAPSIS":"35809.412","PERIAPSIS":"35765.458","OBJECT_TYPE":"PAYLOAD","RCS_SIZE":"LARGE","COUNTRY_CODE":"PRC","LAUNCH_DATE":"2007-07-05","SITE":"XSC","DECAY_DATE":null,"FILE":"3684614","GP_ID":"219764031","TLE_LINE0":"0 CHINASAT 6B","TLE_LINE1":"1 31800U 07031A   22342.61093811 -.00000346  00000-0  00000-0 0  9999","TLE_LINE2":"2 31800   0.0177 357.9905 0005212 260.0681 154.7355  1.00268795 56526"},{"CCSDS_OMM_VERS":"2.0","COMMENT":"GENERATED VIA SPACE-TRACK.ORG API","CREATION_DATE":"2022-12-08T03:13:54","ORIGINATOR":"18 SPCS","OBJECT_NAME":"NIGCOMSAT 1","OBJECT_ID":"2007-018A","CENTER_NAME":"EARTH","REF_FRAME":"TEME","TIME_SYSTEM":"UTC","MEAN_ELEMENT_THEORY":"SGP4","EPOCH":"2022-12-07T17:53:16.401408","MEAN_MOTION":"1.00332265","ECCENTRICITY":"0.00062620","INCLINATION":"9.7582","RA_OF_ASC_NODE":"41.8770","ARG_OF_PERICENTER":"86.5906","MEAN_ANOMALY":"272.7580","EPHEMERIS_TYPE":"0","CLASSIFICATION_TYPE":"U","NORAD_CAT_ID":"31395","ELEMENT_SET_NO":"999","REV_AT_EPOCH":"5714","BSTAR":"0.00000000000000","MEAN_MOTION_DOT":"0.00000057","MEAN_MOTION_DDOT":"0.0000000000000","SEMIMAJOR_AXIS":"42147.786","PERIOD":"1435.231","APOAPSIS":"35796.044","PERIAPSIS":"35743.258","OBJECT_TYPE":"PAYLOAD","RCS_SIZE":"LARGE","COUNTRY_CODE":"NIG","LAUNCH_DATE":"2007-05-13","SITE":"XSC","DECAY_DATE":null,"FILE":"3684212","GP_ID":"219728063","TLE_LINE0":"0 NIGCOMSAT 1","TLE_LINE1":"1 31395U 07018A   22341.74532872  .00000057  00000-0  00000-0 0  9999","TLE_LINE2":"2 31395   9.7582  41.8770 0006262  86.5906 272.7580  1.00332265 57141"},{"CCSDS_OMM_VERS":"2.0","COMMENT":"GENERATED VIA SPACE-TRACK.ORG API","CREATION_DATE":"2022-12-08T18:21:51","ORIGINATOR":"18 SPCS","OBJECT_NAME":"GALAXY 17","OBJECT_ID":"2007-016B","CENTER_NAME":"EARTH","REF_FRAME":"TEME","TIME_SYSTEM":"UTC","MEAN_ELEMENT_THEORY":"SGP4","EPOCH":"2022-12-08T12:53:45.564288","MEAN_MOTION":"1.00270997","ECCENTRICITY":"0.00032980","INCLINATION":"0.0181","RA_OF_ASC_NODE":"333.0525","ARG_OF_PERICENTER":"302.2133","MEAN_ANOMALY":"264.4660","EPHEMERIS_TYPE":"0","CLASSIFICATION_TYPE":"U","NORAD_CAT_ID":"31307","ELEMENT_SET_NO":"999","REV_AT_EPOCH":"5690","BSTAR":"0.00000000000000","MEAN_MOTION_DOT":"-0.00000159","MEAN_MOTION_DDOT":"0.0000000000000","SEMIMAJOR_AXIS":"42164.953","PERIOD":"1436.108","APOAPSIS":"35800.724","PERIAPSIS":"35772.912","OBJECT_TYPE":"PAYLOAD","RCS_SIZE":"LARGE","COUNTRY_CODE":"US","LAUNCH_DATE":"2007-05-04","SITE":"FRGUI","DECAY_DATE":null,"FILE":"3684614","GP_ID":"219762158","TLE_LINE0":"0 GALAXY 17","TLE_LINE1":"1 31307U 07016B   22342.53733292 -.00000159  00000-0  00000-0 0  9991","TLE_LINE2":"2 31307   0.0181 333.0525 0003298 302.2133 264.4660  1.00270997 56906"},{"CCSDS_OMM_VERS":"2.0","COMMENT":"GENERATED VIA SPACE-TRACK.ORG API","CREATION_DATE":"2022-12-08T18:21:51","ORIGINATOR":"18 SPCS","OBJECT_NAME":"ASTRA 1L","OBJECT_ID":"2007-016A","CENTER_NAME":"EARTH","REF_FRAME":"TEME","TIME_SYSTEM":"UTC","MEAN_ELEMENT_THEORY":"SGP4","EPOCH":"2022-12-08T13:25:23.387808","MEAN_MOTION":"1.00270532","ECCENTRICITY":"0.00053540","INCLINATION":"0.0420","RA_OF_ASC_NODE":"330.1798","ARG_OF_PERICENTER":"305.8995","MEAN_ANOMALY":"21.7476","EPHEMERIS_TYPE":"0","CLASSIFICATION_TYPE":"U","NORAD_CAT_ID":"31306","ELEMENT_SET_NO":"999","REV_AT_EPOCH":"3210","BSTAR":"0.00000000000000","MEAN_MOTION_DOT":"0.00000135","MEAN_MOTION_DDOT":"0.0000000000000","SEMIMAJOR_AXIS":"42165.083","PERIOD":"1436.115","APOAPSIS":"35809.523","PERIAPSIS":"35764.373","OBJECT_TYPE":"PAYLOAD","RCS_SIZE":"LARGE","COUNTRY_CODE":"SES","LAUNCH_DATE":"2007-05-04","SITE":"FRGUI","DECAY_DATE":null,"FILE":"3684614","GP_ID":"219761909","TLE_LINE0":"0 ASTRA 1L","TLE_LINE1":"1 31306U 07016A   22342.55929847  .00000135  00000-0  00000-0 0  9998","TLE_LINE2":"2 31306   0.0420 330.1798 0005354 305.8995  21.7476  1.00270532 32101"},{"CCSDS_OMM_VERS":"2.0","COMMENT":"GENERATED VIA SPACE-TRACK.ORG API","CREATION_DATE":"2022-12-08T18:21:51","ORIGINATOR":"18 SPCS","OBJECT_NAME":"ANIK F3","OBJECT_ID":"2007-009A","CENTER_NAME":"EARTH","REF_FRAME":"TEME","TIME_SYSTEM":"UTC","MEAN_ELEMENT_THEORY":"SGP4","EPOCH":"2022-12-08T12:45:51.105600","MEAN_MOTION":"1.00271516","ECCENTRICITY":"0.00021350","INCLINATION":"0.0188","RA_OF_ASC_NODE":"0.9797","ARG_OF_PERICENTER":"271.2736","MEAN_ANOMALY":"237.7612","EPHEMERIS_TYPE":"0","CLASSIFICATION_TYPE":"U","NORAD_CAT_ID":"31102","ELEMENT_SET_NO":"999","REV_AT_EPOCH":"3366","BSTAR":"0.00000000000000","MEAN_MOTION_DOT":"0.00000015","MEAN_MOTION_DDOT":"0.0000000000000","SEMIMAJOR_AXIS":"42164.807","PERIOD":"1436.101","APOAPSIS":"35795.675","PERIAPSIS":"35777.670","OBJECT_TYPE":"PAYLOAD","RCS_SIZE":"LARGE","COUNTRY_CODE":"CA","LAUNCH_DATE":"2007-04-09","SITE":"TTMTR","DECAY_DATE":null,"FILE":"3684614","GP_ID":"219761388","TLE_LINE0":"0 ANIK F3","TLE_LINE1":"1 31102U 07009A   22342.53184150  .00000015  00000-0  00000-0 0  9999","TLE_LINE2":"2 31102   0.0188   0.9797 0002135 271.2736 237.7612  1.00271516 33666"}]